[{"OBJECT_NAME":"GLOBAL-2","OBJECT_ID":"2018-099BG","EPOCH":"2026-03-09T16:47:21.463008","MEAN_MOTION":15.08046936,"ECCENTRICITY":0.00074537,"INCLINATION":97.3697,"RA_OF_ASC_NODE":109.328,"ARG_OF_PERICENTER":127.1924,"MEAN_ANOMALY":232.9986,"EPHEMERIS_TYPE":0,"CLASSIFICATION_TYPE":"U","NORAD_CAT_ID":43812,"ELEMENT_SET_NO":999,"REV_AT_EPOCH":39691,"BSTAR":0.0002614533,"MEAN_MOTION_DOT":3.97e-5,"MEAN_MOTION_DDOT":0},{"OBJECT_NAME":"STARLINK-2252","OBJECT_ID":"2021-041AU","EPOCH":"2026-03-09T10:25:39.685440","MEAN_MOTION":15.06396519,"ECCENTRICITY":0.00013149,"INCLINATION":53.0548,"RA_OF_ASC_NODE":142.7665,"ARG_OF_PERICENTER":91.8997,"MEAN_ANOMALY":268.2143,"EPHEMERIS_TYPE":0,"CLASSIFICATION_TYPE":"U","NORAD_CAT_ID":48595,"ELEMENT_SET_NO":999,"REV_AT_EPOCH":26629,"BSTAR":6.8973137e-5,"MEAN_MOTION_DOT":7.46e-6,"MEAN_MOTION_DDOT":0}]
