GLOBAL-2                
1 43812U 18099BG  26068.69955396  .00003970  00000+0  26145-3 0  9998
2 43812  97.3697 109.3280 0007454 127.1924 232.9986 15.08046936396919
STARLINK-2252           
1 48595U 21041AU  26068.43448710  .00000746  00000+0  68973-4 0  9995
2 48595  53.0548 142.7665 0001314  91.8997 268.2143 15.06396519266297
